{"type":"Topology","bbox":[-17.003076,-43.619336,180,77.730469],"transform":{"scale":[0.019702277827782777,0.012136194119411942],"translate":[-17.003076,-43.619336]},"objects":{"countries":{"type":"GeometryCollection","geometries":[{"type":"Polygon","arcs":[[0,1]],"properties":{"iso2":"AD"}},{"type":"Polygon","arcs":[[2,3,4,5,6]],"properties":{"iso2":"AL"}},{"type":"MultiPolygon","arcs":[[[7,8,9,10,11],[12]],[[13]]],"properties":{"iso2":"AM"}},{"type":"Polygon","arcs":[[14,15,16,17,18,19,20,21,22]],"properties":{"iso2":"AT"}},{"type":"MultiPolygon","arcs":[[[23]],[[24]],[[25]],[[26]],[[27]],[[28]],[[29]],[[30]],[[31]],[[32]],[[33]],[[34]],[[35]],[[36]],[[37]],[[38]],[[39]],[[40]],[[41]],[[42]],[[43]],[[44]],[[45]],[[46]],[[47]],[[48]],[[49]],[[50]],[[51]],[[52]],[[53]],[[54]],[[55]],[[56]],[[57]],[[58]],[[59]],[[60]],[[61]],[[62]],[[63]],[[64]]],"properties":{"iso2":"AU"}},{"type":"MultiPolygon","arcs":[[[65,-12,66]],[[-10,67,68,69],[-14]],[[-13]]],"properties":{"iso2":"AZ"}},{"type":"Polygon","arcs":[[70,71,72,73,74]],"properties":{"iso2":"BA"}},{"type":"Polygon","arcs":[[75,76,77,78,79,80]],"properties":{"iso2":"BE"}},{"type":"Polygon","arcs":[[81,82,83,84,85,86]],"properties":{"iso2":"BG"}},{"type":"Polygon","arcs":[[87,88,89,90,91]],"properties":{"iso2":"BY"}},{"type":"Polygon","arcs":[[-15,92,-22,93,94,95]],"properties":{"iso2":"CH"}},{"type":"Polygon","arcs":[[96]],"properties":{"iso2":"CY"}},{"type":"Polygon","arcs":[[97,-17,98,99]],"properties":{"iso2":"CZ"}},{"type":"MultiPolygon","arcs":[[[-96,100,101,-77,102,103,104,105,106,-99,-16]],[[107]],[[108,109]],[[110]],[[111]],[[112]]],"properties":{"iso2":"DE"}},{"type":"MultiPolygon","arcs":[[[113]],[[-105,114]],[[115]],[[116]],[[117]],[[118]],[[119]],[[120]],[[121]],[[122]],[[123]],[[124]]],"properties":{"iso2":"DK"}},{"type":"MultiPolygon","arcs":[[[125,126,127]],[[128]],[[129]],[[130]]],"properties":{"iso2":"EE"}},{"type":"MultiPolygon","arcs":[[[131]],[[132]],[[133]],[[134]],[[135,-1,136,137,138,139]]],"properties":{"iso2":"ES"}},{"type":"MultiPolygon","arcs":[[[140,141,142,143]],[[144]],[[145]],[[146]],[[147]],[[148]],[[149]],[[150]]],"properties":{"iso2":"FI"}},{"type":"MultiPolygon","arcs":[[[151]],[[-95,152,153,154,155,-137,-2,-136,156,-79,157,-101]],[[158]]],"properties":{"iso2":"FR"}},{"type":"MultiPolygon","arcs":[[[159]],[[160]],[[161]],[[162]],[[163]],[[164]],[[165]],[[166]],[[167]],[[168]],[[169]],[[170]],[[171]],[[172]],[[173]],[[174]],[[175]],[[176]],[[177]],[[178]],[[179]],[[180,181]],[[182]]],"properties":{"iso2":"GB"}},{"type":"Polygon","arcs":[[183,184,185,-68,-9]],"properties":{"iso2":"GE"}},{"type":"MultiPolygon","arcs":[[[186]],[[187]],[[188]],[[189]],[[190]],[[191]],[[192]],[[193]],[[194]],[[195]],[[196]],[[197]],[[198]],[[199]],[[200]],[[201]],[[202]],[[203]],[[204]],[[205]],[[206]],[[207]],[[208]],[[209]],[[210]],[[211]],[[212]],[[213]],[[214]],[[215]],[[216]],[[217]],[[218]],[[219]],[[220]],[[221]],[[222]],[[223]],[[224]],[[225,226,-6,227,-83]]],"properties":{"iso2":"GR"}},{"type":"MultiPolygon","arcs":[[[228,229,230,-74,231]],[[232]],[[233]],[[234]],[[235]],[[236]],[[237]],[[238]],[[239]],[[240]],[[241]],[[242]],[[243,244,-72]]],"properties":{"iso2":"HR"}},{"type":"Polygon","arcs":[[245,246,247,-230,248,-19,249]],"properties":{"iso2":"HU"}},{"type":"MultiPolygon","arcs":[[[250]],[[-181,251]]],"properties":{"iso2":"IE"}},{"type":"Polygon","arcs":[[252,253,254,255,256,257,258,259,260]],"properties":{"iso2":"IL"}},{"type":"Polygon","arcs":[[261]],"properties":{"iso2":"IS"}},{"type":"MultiPolygon","arcs":[[[-94,-21,262,263,-153],[264],[265]],[[266]],[[267]],[[268]],[[269]],[[270]],[[271]],[[272]]],"properties":{"iso2":"IT"}},{"type":"MultiPolygon","arcs":[[[273,274]],[[275,276,277,-90,278]]],"properties":{"iso2":"LT"}},{"type":"Polygon","arcs":[[-102,-158,-78]],"properties":{"iso2":"LU"}},{"type":"Polygon","arcs":[[-278,279,-126,280,-91]],"properties":{"iso2":"LV"}},{"type":"Polygon","arcs":[[281,282]],"properties":{"iso2":"MA"}},{"type":"Polygon","arcs":[[283,-155]],"properties":{"iso2":"MC"}},{"type":"Polygon","arcs":[[284,285]],"properties":{"iso2":"MD"}},{"type":"Polygon","arcs":[[286,287,-3,288,-244,-71]],"properties":{"iso2":"ME"}},{"type":"Polygon","arcs":[[289,-84,-228,-5,290]],"properties":{"iso2":"MK"}},{"type":"MultiPolygon","arcs":[[[291]],[[292]]],"properties":{"iso2":"MT"}},{"type":"MultiPolygon","arcs":[[[-76,293,-103]],[[-81,294]],[[295]],[[296]],[[297]],[[298]],[[299]],[[300]],[[301]]],"properties":{"iso2":"NL"}},{"type":"MultiPolygon","arcs":[[[302,303,304,-142]],[[305]],[[306]],[[307]],[[308]],[[309]],[[310]],[[311]],[[312]],[[313]],[[314]],[[315]],[[316]],[[317]],[[318]],[[319]]],"properties":{"iso2":"NO"}},{"type":"Polygon","arcs":[[320,321,-100,-107,322,-109,323,324,-279,-89]],"properties":{"iso2":"PL"}},{"type":"Polygon","arcs":[[-139,325]],"properties":{"iso2":"PT"}},{"type":"Polygon","arcs":[[326,327,-86,328,-247,329,-286]],"properties":{"iso2":"RO"}},{"type":"Polygon","arcs":[[-85,-290,330,-287,-75,-231,-248,-329]],"properties":{"iso2":"RS"}},{"type":"MultiPolygon","arcs":[[[-69,-186,331,332,-92,-281,-128,333,-143,-305,334]],[[335]],[[336]],[[337]],[[338]],[[339]],[[340,-276,-325,341,-274]],[[342,343]]],"properties":{"iso2":"RU"}},{"type":"MultiPolygon","arcs":[[[344]],[[345]],[[-303,-141,346]],[[347]],[[348]],[[349]]],"properties":{"iso2":"SE"}},{"type":"Polygon","arcs":[[-229,350,-263,-20,-249]],"properties":{"iso2":"SI"}},{"type":"Polygon","arcs":[[351,-250,-18,-98,-322]],"properties":{"iso2":"SK"}},{"type":"Polygon","arcs":[[-266]],"properties":{"iso2":"SM"}},{"type":"MultiPolygon","arcs":[[[352]],[[-184,-8,-66,353,354,355]],[[356,-226,-82]]],"properties":{"iso2":"TR"}},{"type":"MultiPolygon","arcs":[[[357,-343,358,-327,-285,-330,-246,-352,-321,-88,-333]],[[359]]],"properties":{"iso2":"UA"}}]},"context":{"type":"GeometryCollection","geometries":[{"type":"Polygon","arcs":[[360,361,362,-282,363]],"properties":{"iso2":"DZ"}},{"type":"Polygon","arcs":[[364,365,-259,366]],"properties":{"iso2":"EG"}},{"type":"Polygon","arcs":[[367,368,-257,369,-255]],"properties":{"iso2":"JO"}},{"type":"Polygon","arcs":[[370,371,-261,372]],"properties":{"iso2":"LB"}},{"type":"Polygon","arcs":[[373,374,-365,375,-362]],"properties":{"iso2":"LY"}},{"type":"Polygon","arcs":[[-355,376,-368,-254,377,-371,378]],"properties":{"iso2":"SY"}},{"type":"MultiPolygon","arcs":[[[-374,-361,379]],[[380]],[[381]]],"properties":{"iso2":"TN"}}]}},"arcs":[[[950,7096],[-15,8]],[[935,7104],[15,-8]],[[1845,7044],[16,63],[20,-7]],[[1881,7100],[26,-56]],[[1907,7044],[-4,-49],[24,-35]],[[1927,6960],[-29,-86],[-20,-8]],[[1878,6866],[-33,75],[12,96],[-12,7]],[[3135,6866],[-53,38],[-14,77]],[[3068,6981],[79,15]],[[3147,6996],[49,-87],[-20,-21],[32,-31],[15,-57]],[[3223,6800],[-19,-2]],[[3204,6798],[-19,56],[-50,12]],[[3148,6975],[0,0]],[[3175,6941],[0,0]],[[1347,7489],[-1,21]],[[1346,7510],[40,-17],[97,33],[41,-20],[-11,57],[51,49]],[[1564,7612],[45,-13],[14,31],[100,-31]],[[1723,7599],[10,-49]],[[1733,7550],[-30,-22],[-5,-61],[-18,-11]],[[1680,7456],[-81,-37],[-41,8]],[[1558,7427],[-66,15],[-11,32],[-87,-18]],[[1394,7456],[-45,16]],[[1349,7472],[-2,17]],[[8130,2609],[29,-197],[37,9],[41,-58],[7,-121],[36,-101],[-5,-52],[23,-67],[47,-25],[60,-63],[5,-36],[39,-82],[7,-56],[24,8],[35,-34],[4,-73],[54,-61],[51,-101],[13,-44],[-2,-102],[23,-86],[-32,-263],[-24,-83],[-60,-94],[-31,-131],[-25,-54],[-13,-140],[-32,-23],[-53,-2],[-71,-69],[-36,-16],[-38,27],[-26,52],[-69,-76],[-47,31],[-60,7],[-40,28],[-43,64],[4,48],[-46,89],[-39,-2],[16,48],[-21,71],[-20,-81],[-16,19],[6,62],[22,48],[-7,63],[-28,-67],[-41,-33],[-40,-75],[-44,133],[-24,13],[-4,51],[-75,49],[-27,-4],[-55,42],[-111,-17],[-83,-46],[-71,-3],[-91,-69],[-24,-58],[-76,-13],[-38,14],[-79,-12],[-87,-84],[-82,0],[-77,61],[0,61],[35,26],[0,124],[-26,73],[-11,113],[-40,111],[-7,61],[-36,76],[39,2],[6,45],[-40,117],[17,84],[-4,64],[22,67],[1,-54],[37,61],[94,89],[35,-5],[176,87],[75,134],[-10,60],[41,72],[31,-90],[10,54],[-14,31],[49,13],[-1,70],[58,83],[16,-11],[15,50],[36,22],[66,-83],[84,-7],[-24,36],[40,118],[57,74],[7,-17],[61,19],[2,32],[-44,31],[173,-78],[53,-17],[14,39],[21,-32],[-25,-73],[-27,-6],[-2,-70],[-18,-70],[110,-101],[28,-40],[39,-15],[12,-36],[40,-31],[40,24],[20,64],[20,131],[-7,103],[10,119],[25,116],[14,20],[37,-103]],[[8633,1472],[0,0]],[[7944,2229],[0,0]],[[7802,2457],[9,-41],[-28,7],[19,34]],[[7485,2632],[0,0]],[[7493,2657],[46,-5],[-30,-41],[-16,46]],[[6608,1447],[0,0]],[[7847,649],[-8,-27],[-41,27],[49,0]],[[8247,434],[0,0]],[[8239,423],[0,0]],[[8428,1922],[0,0]],[[8422,1934],[0,0]],[[8535,1659],[0,0]],[[8503,1755],[0,0]],[[8473,1765],[0,0]],[[8656,1333],[0,0]],[[8651,1343],[0,0]],[[8084,2712],[0,0]],[[8087,2754],[0,0]],[[8079,2757],[0,0]],[[8287,2092],[0,0]],[[7796,2657],[0,0]],[[7783,2638],[0,0]],[[7821,2294],[0,0]],[[7810,2307],[0,0]],[[7796,2306],[0,0]],[[7941,2184],[0,0]],[[7778,2455],[0,0]],[[7593,2663],[0,0]],[[7218,2393],[0,0]],[[7187,2325],[0,0]],[[6723,1881],[0,0]],[[8225,233],[64,-31],[101,18],[0,-90],[-19,-44],[3,-48],[-29,22],[-27,-59],[-42,5],[-29,51],[2,47],[-38,77],[-3,62],[17,-10]],[[8168,289],[0,0]],[[8375,318],[0,0]],[[8342,18],[0,0]],[[8380,75],[0,0]],[[8346,31],[0,0]],[[8212,256],[0,0]],[[8391,273],[0,0]],[[8387,256],[0,0]],[[7136,2570],[0,0]],[[3138,6861],[-3,5]],[[3204,6798],[-33,10],[-33,53]],[[3147,6996],[14,14],[60,-32],[-1,68]],[[3220,7046],[42,-48],[30,-8],[36,52]],[[3328,7042],[34,-67],[57,-62],[-41,-7],[-35,-145],[-43,32],[16,48],[-28,20],[-65,-61]],[[1837,7181],[-38,-46],[0,-34]],[[1799,7101],[-39,28]],[[1760,7129],[-4,3]],[[1756,7132],[-94,151],[60,42],[88,-17],[18,-17]],[[1828,7291],[29,-68],[-20,-42]],[[1078,7828],[81,-21],[8,-31]],[[1167,7776],[6,-52]],[[1173,7724],[-16,-48]],[[1157,7676],[-47,21],[0,28],[-35,-14],[-84,93]],[[991,7804],[42,24]],[[1033,7828],[45,0]],[[2285,7052],[-37,9],[-49,-29]],[[2199,7032],[-8,-24],[-46,-15],[-38,25],[-81,-18]],[[2026,7000],[5,32],[-34,49]],[[1997,7081],[6,43],[26,29],[-21,22],[7,64]],[[2015,7239],[27,-30],[115,-16],[81,40],[76,-35]],[[2314,7198],[-33,-45],[-23,-60],[27,-41]],[[2475,7887],[-40,-4],[-22,-37],[-61,-18],[-105,19],[-68,25],[-79,-4],[-39,-29]],[[2061,7839],[2,43],[-23,18],[33,34],[-18,105]],[[2055,8039],[65,3],[40,27],[16,50],[46,30],[-9,32]],[[2213,8181],[50,11],[29,28]],[[2292,8220],[106,-24],[34,-23],[11,-76],[32,-69],[48,-39],[-29,-20],[-36,8],[17,-90]],[[1347,7489],[2,-17]],[[1394,7456],[-16,-51],[-45,19],[-16,-54],[-29,51],[-30,-43],[-39,0]],[[1219,7378],[-13,41],[-35,1],[47,73],[32,23]],[[1250,7516],[50,14],[46,-20]],[[2523,6492],[59,-6],[-47,-43],[-32,31],[20,18]],[[1819,7674],[-96,-75]],[[1564,7612],[-60,58],[-9,73],[97,45],[23,-3]],[[1615,7785],[81,-24],[74,-49],[35,-8],[14,-30]],[[1250,7516],[11,86],[15,27],[-71,16],[-20,24]],[[1185,7669],[-12,55]],[[1167,7776],[10,61],[-12,22],[40,13],[23,113]],[[1228,7985],[5,32],[61,-13],[25,34],[-16,80]],[[1303,8118],[54,-6]],[[1357,8112],[21,-28],[44,-9],[20,-36],[59,43],[59,-26],[27,-35]],[[1587,8021],[-7,-70],[25,-29],[-1,-57],[21,-48],[-10,-32]],[[1559,8075],[0,0]],[[1584,8040],[0,-7]],[[1584,8033],[0,7]],[[1436,8078],[0,0]],[[1285,8108],[0,0]],[[1299,8102],[0,0]],[[1501,8191],[-36,-84],[-45,79],[81,28],[0,-23]],[[1303,8118],[-3,43],[-24,14],[1,83],[23,42],[48,10],[50,41],[-13,-91],[28,-9],[-63,-84],[7,-55]],[[1403,8176],[7,-39],[-40,2],[-7,30],[40,7]],[[1440,8117],[0,0]],[[1408,8106],[0,0]],[[1500,8123],[0,0]],[[1506,8175],[0,0]],[[1395,8113],[0,0]],[[1374,8117],[0,0]],[[1401,8191],[0,0]],[[1424,8312],[0,0]],[[1629,8128],[0,0]],[[2251,8334],[-41,1],[-72,43],[-40,-15]],[[2098,8363],[10,39],[-39,1],[-14,69],[103,36],[74,-15],[53,3]],[[2285,8496],[-28,-53],[15,-83],[-21,-26]],[[2011,8424],[34,-11],[-56,-27],[-16,28],[38,10]],[[2027,8441],[0,0]],[[2048,8419],[0,0]],[[944,6781],[0,0]],[[1023,6873],[-4,-40],[-36,25],[40,15]],[[1081,6877],[0,0]],[[936,6801],[0,0]],[[772,7171],[16,-28],[147,-39]],[[950,7096],[76,-6]],[[1026,7090],[2,-40],[-59,-54],[-54,-18],[-69,-127],[27,-63],[-43,-50],[-9,-47],[-25,-2],[-44,-67],[-111,-2],[-64,-57],[-21,13],[-23,63],[-46,19]],[[487,6658],[15,82],[-12,23],[18,49],[-27,50],[25,5],[11,51],[-6,55],[37,43],[-21,34],[-40,-9],[-69,9]],[[418,7050],[4,27],[-28,58],[19,30],[59,35],[22,-14],[72,4],[67,-18],[139,-1]],[[2089,9016],[-23,56],[15,27],[-27,53],[9,41],[-44,36],[-40,11],[-69,43]],[[1910,9283],[50,19],[40,-45],[74,7],[55,-18],[41,33],[13,54],[26,22],[70,12],[63,-32],[-9,-54]],[[2333,9281],[-25,-44],[11,-24],[66,-41],[-46,-60],[42,-72],[-15,-93],[23,-16],[22,-62],[-25,-22],[78,-71],[-13,-26],[-103,-106],[-74,-62]],[[2274,8582],[-28,0],[-217,-58],[-20,45],[-58,18],[9,82],[-26,85],[23,48],[39,9],[113,123],[38,5],[3,51],[-61,26]],[[1979,8566],[0,0]],[[1940,8805],[0,0]],[[1989,8569],[0,0]],[[1952,8582],[0,0]],[[1971,8550],[0,0]],[[1961,8547],[0,0]],[[2124,8949],[0,0]],[[1344,7121],[4,-55],[-19,-62],[-19,17],[-12,63],[46,37]],[[1219,7378],[7,-43],[-27,-23],[18,-69],[36,-16],[-10,-27]],[[1243,7200],[-2,-1]],[[1241,7199],[-4,-1]],[[1237,7198],[-64,-55],[-104,43],[-51,-56],[8,-40]],[[772,7171],[16,13],[23,179],[-6,47],[-33,17],[-32,79],[-114,47],[-3,41],[76,25],[27,-26],[67,10],[-24,85],[36,-24],[50,-8],[17,34],[72,45],[-1,40],[48,29]],[[1157,7676],[28,-7]],[[803,7377],[0,0]],[[728,7848],[-32,-19],[-100,40],[65,54],[-7,56],[48,15],[15,64],[-35,24],[7,41],[-27,-15],[-60,6],[24,53],[-9,46],[-47,-57],[30,115],[-48,-3],[29,42],[-3,53],[28,53],[102,10],[-48,-56],[-7,-32],[105,11],[15,-17],[-45,-97],[-36,-24],[39,0],[48,-38],[18,-66],[62,-54],[22,-79],[-16,-21],[52,5],[35,-40],[-54,-90],[37,-2],[-23,-36],[-39,-13],[-82,11],[-31,-24],[-70,2],[-92,-50],[-6,18],[58,78],[54,1],[24,35]],[[650,7988],[0,0]],[[734,8475],[0,0]],[[810,8580],[0,0]],[[797,8582],[0,0]],[[824,8605],[0,0]],[[702,8439],[0,0]],[[714,8434],[0,0]],[[708,8458],[0,0]],[[724,8471],[0,0]],[[528,8257],[0,0]],[[604,8163],[0,0]],[[570,8237],[0,0]],[[552,8203],[0,0]],[[560,8193],[0,0]],[[548,8403],[-38,-50],[-3,39],[41,11]],[[544,8288],[0,0]],[[551,8332],[10,-37],[-41,32],[31,5]],[[497,8347],[0,0]],[[495,8300],[0,0]],[[487,8288],[0,0]],[[547,8051],[-42,26],[-15,-23],[-39,24],[46,56]],[[497,8134],[55,10],[28,-46],[-2,-32],[-31,-15]],[[809,7771],[0,0]],[[3068,6981],[-33,38],[-65,-4]],[[2970,7015],[13,37],[-14,57],[-77,63]],[[2892,7172],[34,9],[47,-26],[43,1],[78,-54],[46,15],[44,-23],[-5,-22],[41,-26]],[[2277,6606],[0,0]],[[1909,6757],[0,0]],[[1923,6709],[0,0]],[[1913,6775],[0,0]],[[1917,6752],[0,0]],[[1882,6843],[0,0]],[[2051,6804],[35,-23],[9,-38],[-52,48],[8,13]],[[2070,6817],[0,0]],[[2075,6821],[0,0]],[[2115,6792],[0,0]],[[2120,6941],[0,0]],[[2058,6719],[0,0]],[[2033,6576],[0,0]],[[2242,6516],[0,0]],[[2234,6640],[0,0]],[[2231,6620],[0,0]],[[2160,6640],[0,0]],[[2146,6649],[0,0]],[[2156,6593],[0,0]],[[2151,6616],[0,0]],[[2224,6710],[0,0]],[[2184,6687],[0,0]],[[2176,6626],[0,0]],[[2206,6609],[0,0]],[[2099,6690],[0,0]],[[2103,6671],[0,0]],[[2108,6623],[0,0]],[[2129,6684],[0,0]],[[2131,6705],[0,0]],[[2145,6692],[0,0]],[[2118,6636],[0,0]],[[2187,6743],[0,0]],[[2203,6835],[0,0]],[[2167,6925],[0,0]],[[2154,6889],[0,0]],[[2152,6677],[0,0]],[[2108,6653],[0,0]],[[2276,6555],[0,0]],[[2074,6522],[82,-19],[39,-21],[-73,-9],[-64,39],[16,10]],[[2199,7032],[15,-26],[-29,-56]],[[2185,6950],[-48,22],[-68,-20],[-23,-44],[-34,23],[-2,-38],[35,-62],[-35,-32],[69,-51],[5,-47],[-24,25],[-28,-11],[23,-36],[-39,9],[14,-44],[-56,-23],[-16,66],[-22,26],[35,39],[55,-30],[-25,39],[-66,-4],[-17,51],[-40,58]],[[1927,6960],[99,40]],[[1552,7345],[90,-4],[15,60],[44,25]],[[1701,7426],[66,-59],[56,12]],[[1823,7379],[5,-88]],[[1756,7132],[-35,38],[-47,10],[-43,61],[-14,68],[-28,21],[-17,-41],[-20,56]],[[1708,7137],[0,0]],[[1736,7148],[0,0]],[[1715,7160],[0,0]],[[1636,7225],[0,0]],[[1615,7300],[0,0]],[[1616,7282],[0,0]],[[1634,7247],[0,0]],[[1634,7213],[0,0]],[[1643,7218],[0,0]],[[1598,7274],[0,0]],[[1757,7118],[0,0]],[[1799,7101],[4,-10]],[[1803,7091],[-43,38]],[[1986,7583],[38,-38]],[[2024,7545],[-30,-18],[-63,-123],[-41,-11]],[[1890,7393],[-67,-14]],[[1701,7426],[-21,30]],[[1733,7550],[32,-20],[108,30],[30,33],[83,-10]],[[358,8036],[0,0]],[[547,8051],[10,-96],[-15,-56],[-61,-12],[-65,-42],[-52,-9],[12,33],[-40,-1],[31,31],[24,70],[-41,37],[3,59],[76,-1],[21,32],[-32,4],[25,38],[52,17],[2,-21]],[[2682,6348],[-1,-5]],[[2681,6343],[-2,-52]],[[2679,6291],[-12,-28]],[[2667,6263],[-30,-19],[25,-56]],[[2662,6188],[-24,-159]],[[2638,6029],[-3,-6]],[[2635,6023],[-34,143]],[[2601,6166],[14,26],[30,128]],[[2645,6320],[37,28]],[[785,9051],[35,-37],[60,-19],[4,-33],[-49,-58],[-106,-47],[-60,-13],[-42,-25],[-79,12],[-53,31],[-71,-9],[51,47],[-42,33],[-79,6],[108,15],[-29,15],[32,18],[-54,11],[-79,-7],[47,55],[55,-8],[-34,24],[35,6],[52,-33],[14,-63],[39,63],[46,-21],[4,25],[55,6],[38,-16],[79,46],[23,-24]],[[1558,7427],[1,-77]],[[1559,7350],[-4,16],[-69,-27],[13,-40],[-7,-61],[59,-54],[23,-72],[59,-63],[40,1],[3,-42],[98,-64],[27,-45],[-79,29],[-20,-49],[33,-71],[-32,-24],[-25,-64],[-17,0],[24,68],[-26,101],[-37,21],[-10,35],[-52,47],[-56,19],[-97,121],[-34,89],[-65,33],[-65,-54]],[[1494,7047],[0,0]],[[1497,7212],[0,0]],[[1391,7126],[0,0]],[[1570,6948],[0,0]],[[1475,6623],[0,0]],[[1654,6743],[-25,-62],[1,-64],[-31,9],[-105,84],[15,30],[48,-15],[97,18]],[[1352,6963],[9,-32],[-10,-94],[-37,-36],[-24,24],[7,52],[-17,88],[51,29],[21,-31]],[[1293,6813],[0,0]],[[1284,6976],[0,0]],[[1927,8149],[-3,1]],[[1924,8150],[3,-1]],[[2019,8073],[-11,58],[-67,17]],[[1941,8148],[-10,66]],[[1931,8214],[53,28],[103,-12],[40,11],[86,-60]],[[2055,8039],[-36,34]],[[1931,8214],[1,62],[34,62],[42,13],[55,-63],[39,30],[-4,45]],[[2251,8334],[23,-17],[-8,-39],[26,-58]],[[750,6487],[22,-29],[6,-118],[31,-71],[-11,-31],[-59,4],[-70,-39],[10,-49],[-68,-50],[-25,-41],[-83,-28],[-80,-74],[-1,-88]],[[422,5873],[-5,-44],[-48,-22],[-60,13],[-24,-11],[-33,-70],[-20,-99],[-81,-117],[-10,-91],[-31,-70],[-110,-3],[4,40],[29,57],[23,103],[44,58],[31,140],[43,40],[32,97],[77,39],[48,56],[41,86],[-7,108],[29,95],[48,66],[71,49],[49,150],[30,-4],[25,-38],[133,-14]],[[1241,7199],[-4,-1]],[[2214,7571],[47,18],[79,-42],[3,-43],[36,-51],[-2,-40],[-35,15],[-10,-39],[-37,-50]],[[2295,7339],[1,98],[-64,125],[-18,9]],[[1837,7181],[59,-58]],[[1896,7123],[-15,-23]],[[1845,7044],[-42,47]],[[1957,7075],[40,6]],[[1907,7044],[50,31]],[[1602,6548],[0,0]],[[1589,6563],[0,0]],[[1078,7828],[-40,13],[53,63],[9,42],[71,49],[57,-10]],[[1033,7828],[45,0]],[[1184,8003],[0,0]],[[1164,7999],[0,0]],[[1122,7987],[0,0]],[[1133,7993],[0,0]],[[1111,7967],[0,0]],[[1063,7857],[0,0]],[[1205,8009],[0,0]],[[1910,9283],[-33,-56],[-81,17],[-24,-50],[-30,12],[-60,-56],[14,-31],[-95,-76],[-3,-68],[-42,-59],[16,-47],[-66,-6],[-34,-54],[15,-83],[-7,-46],[37,-31],[-30,-28],[10,-74],[-41,-43],[-15,-45]],[[1441,8459],[-42,45],[-19,-48],[-29,-5],[-74,-66],[-81,-2],[-43,33],[12,64],[-42,-6],[10,155],[-20,50],[11,37],[83,45],[12,21],[55,11],[15,36],[66,8],[54,-14],[9,26],[-51,-21],[-16,23],[48,51],[49,27],[81,122],[5,34],[88,77],[5,32],[48,22],[13,-28],[20,61],[38,14],[91,78],[114,22],[-4,18],[67,12],[36,-11],[70,63],[51,-13],[-37,-61],[74,66],[4,-41],[92,46],[-11,-56],[47,47],[94,-48],[-69,-25],[2,-16],[63,0]],[[2430,9344],[-97,-63]],[[1115,8627],[0,0]],[[1121,8563],[0,0]],[[2383,9345],[0,0]],[[1470,9002],[0,0]],[[1293,8840],[0,0]],[[1274,8813],[0,0]],[[1567,9219],[0,0]],[[1521,9187],[0,0]],[[1635,9275],[1,-27],[-36,1],[35,26]],[[1840,9367],[-24,-40],[-22,16],[46,24]],[[1498,9024],[0,0]],[[1493,9036],[0,0]],[[1433,8939],[0,0]],[[1751,9329],[23,-33],[-40,-14],[17,47]],[[1663,9243],[8,-14],[-84,-16],[58,35],[25,55],[-7,-60]],[[2061,7839],[26,-55],[-74,-108],[-6,-38]],[[2007,7638],[-46,28],[-95,-17],[-16,32],[-31,-7]],[[1587,8021],[-3,12]],[[1584,8040],[101,28],[19,21],[89,24],[18,-34],[47,2]],[[1858,8081],[161,-8]],[[487,6658],[-81,-12],[6,116],[-30,24],[42,189],[-6,75]],[[2295,7339],[76,-16]],[[2371,7323],[-34,-41],[-23,-84]],[[2015,7239],[-10,39],[-21,-14],[-37,27],[7,21],[-37,30],[-27,51]],[[2024,7545],[17,11],[85,-30],[88,45]],[[1957,7075],[10,35],[-50,49],[-21,-36]],[[2892,7172],[-64,71],[-105,69],[51,21],[18,55],[25,4],[-37,45],[77,39],[-54,-2]],[[2803,7474],[3,39],[31,24],[43,-1],[11,35],[4,110],[-90,37],[-43,30],[-40,-17],[-62,28],[-17,54],[-42,4],[8,44],[-34,46],[-62,-3],[-38,-17]],[[2285,8496],[0,19],[57,23],[-32,56],[-36,-12]],[[2430,9344],[56,14],[49,-16],[-29,-23],[177,-24],[95,-41],[36,-27],[128,-53],[20,-42],[-42,-63],[-108,-31],[-146,27],[-120,37],[-12,20],[-52,6],[147,-107],[-20,-38],[24,-69],[76,-46],[54,-16],[26,42],[-39,7],[-33,36],[18,27],[146,-49],[35,17],[-32,67],[84,44],[37,32],[52,-8],[45,-34],[19,55],[-32,42],[16,94],[-39,23],[126,-10],[41,-52],[-59,-8],[-30,-33],[53,-41],[85,10],[11,50],[150,63],[151,53],[6,-46],[-34,-14],[82,-5],[28,30],[87,-1],[97,37],[3,-46],[40,-2],[0,23],[53,24],[-39,49],[43,22],[119,-15],[185,-66],[69,-46],[39,53],[-30,1],[-27,42],[-61,15],[24,89],[-23,5],[4,40],[69,33],[39,81],[31,19],[94,1],[67,-18],[-10,-51],[-36,-43],[34,-33],[-3,-171],[52,-41],[-20,-59],[-81,-91],[-31,-17],[-54,24],[-35,-22],[58,-19],[80,-8],[81,50],[64,75],[-19,54],[9,27],[96,19],[39,-42],[-3,-57],[21,-2],[21,42],[-18,53],[-84,27],[-102,-10],[-21,49],[39,72],[-63,71],[29,33],[67,25],[-10,55],[29,-2],[19,-41],[-25,-40],[5,-38],[114,-15],[32,8],[-97,27],[-14,26],[43,11],[69,-7],[-39,20],[99,15],[68,-24],[38,-28],[75,0],[-34,-40],[-3,-59],[31,34],[-9,-61],[53,27],[-30,46],[22,40],[-71,53],[-69,21],[-12,89],[150,8],[155,19],[22,-6],[-61,-27],[66,10],[4,22],[-72,63],[44,3],[52,37],[127,38],[171,21],[-29,19],[81,6],[76,-6],[22,-16],[110,29],[59,-8],[-52,28],[103,4],[8,38],[108,52],[45,9],[104,-28],[-94,-24],[139,-5],[25,-9],[-52,-34],[62,-1],[20,18],[157,0],[109,-39],[23,-66],[-40,-36],[-157,-57],[-83,-52],[-102,-31],[14,-14],[65,2],[107,25],[51,21],[-56,0],[25,24],[96,-25],[65,-5],[-14,-16],[111,20],[158,-9],[-1,-28],[67,-23],[173,-1],[24,19],[-17,28],[55,18],[110,-34],[25,17],[94,-29],[-15,-24],[33,-16],[-42,-14],[50,-18],[-24,-20],[-57,30],[99,-109],[71,-31],[21,13],[55,85],[39,-36],[65,-9],[60,20],[99,-33],[14,28],[95,-6],[-41,55],[22,28],[75,7],[-19,25],[68,-14],[174,-15],[38,-15],[-105,-8],[79,-4],[4,-38],[74,48],[114,-14],[19,-26],[-42,-4],[129,-42],[47,-37],[172,21],[108,-4],[67,-21],[33,-39],[-9,-44],[55,-14],[6,-42],[27,-16],[-1,39],[42,22],[91,6],[18,-9],[120,-9],[38,20],[34,-39],[51,-16],[16,-24],[70,21],[-42,48],[16,40],[142,-23],[143,3],[140,-39],[58,-34],[0,-322],[-75,-39],[-125,30],[34,-28],[33,12],[3,-27],[40,-6],[68,-139],[-23,-30],[-92,23],[-187,-73],[-62,-53],[-91,-52],[-13,-39],[-57,52],[-55,-2],[-60,-22],[-32,-35],[1,50],[-64,-32],[-85,-22],[-7,-43],[-57,-71],[-10,-30],[64,-33],[-22,-27],[1,-45],[23,-10],[-10,-53],[-29,29],[-38,-85],[19,-50],[-68,-18],[-47,-62],[9,-54],[-22,9],[-50,-30],[-25,-88],[-69,-69],[-33,168],[-28,193],[22,111],[50,63],[-9,23],[72,23],[42,33],[41,58],[97,85],[13,22],[86,41],[25,113],[61,17],[-58,16],[-47,-12],[-16,-62],[-32,-11],[-112,-84],[-20,26],[27,69],[-63,10],[-82,-10],[-126,-117],[-42,-70],[51,-28],[-58,-9],[-33,11],[-24,-22],[-79,-6],[-11,17],[58,12],[-39,25],[-94,20],[-108,-41],[-54,13],[-165,-5],[-59,-30],[-103,-109],[-68,-59],[-49,-68],[-124,-99],[30,-29],[48,3],[-4,-67],[19,26],[38,-15],[-31,-30],[68,20],[7,41],[51,-4],[86,-90],[-12,-67],[16,-15],[-40,-78],[-11,-57],[2,-78],[-18,-89],[-80,-120],[-46,-102],[-92,-120],[-37,-69],[-100,-69],[-44,16],[0,35],[-26,-5],[-32,-52],[5,67],[-9,122],[39,34],[55,-24],[47,100],[16,87],[29,34],[-9,50],[-72,-18],[-30,-28],[-79,-6],[-23,96],[-53,44],[-76,15],[-55,126],[-31,107],[-34,53],[-103,41],[-65,-5],[-83,-26],[-32,-44],[30,-5],[1,-49],[-31,-31],[-46,-98],[5,-28],[-70,-46],[-89,41],[-43,-5],[-50,27],[-63,-55],[-113,-37],[-112,13],[-34,50],[-63,32],[-67,13],[-89,-28],[-68,37],[-9,64],[-111,33],[-53,30],[-48,-64],[17,-67],[-9,-38],[-45,-28],[-69,23],[-63,1],[-18,44],[-58,4],[-38,21],[-138,-79],[-32,-35],[-42,-2],[-44,-30],[-36,43],[-67,-1],[-15,38],[-34,15],[-19,44],[-30,18],[-44,-22],[-52,1],[-30,45],[-45,-42],[-77,153],[-39,61],[-57,47],[13,41],[-121,-65],[-55,-16],[16,39],[-72,28],[-60,-5],[5,32],[-23,58],[-28,-12],[-61,19],[-65,-42],[-113,-21],[-180,-56],[-30,9],[-18,-36],[51,-55],[-48,2],[-5,-57],[-44,-25],[66,-44],[1,-48],[-127,-14],[-27,31],[-46,-15],[-49,11],[-35,-34],[-54,32],[-4,-28],[-67,68],[-51,17],[-50,-17],[-28,21],[-28,-37],[-82,-55],[11,-50],[-21,-15],[-37,45],[-19,-8],[-27,-75],[11,-22],[-18,-57],[32,-55],[42,0],[57,-116],[-87,-66],[-39,-72],[31,-55],[5,-79],[56,-98]],[[2681,8965],[0,0]],[[3031,9090],[0,0]],[[3298,7342],[0,0]],[[3414,9295],[-32,-27],[-49,-10],[-20,25],[48,39],[53,-27]],[[3931,9357],[0,-18],[-76,14],[-24,31],[27,16],[73,-43]],[[1927,8149],[14,-1]],[[1858,8081],[19,39],[47,30]],[[2568,7392],[56,-9],[16,-21]],[[2640,7362],[18,-31],[61,3],[-9,-27],[-47,3],[-79,-58],[-23,13],[5,45],[-53,25],[55,57]],[[1831,8360],[-8,-36],[-39,-40],[0,53],[47,23]],[[1702,8232],[-6,23],[36,62],[-30,-85]],[[2089,9016],[-91,3],[-40,-35],[-22,-50],[19,-28],[-38,-49],[-110,-57],[-36,-29],[-39,-103],[7,-72],[35,-9],[52,-69],[-38,-28],[3,-25],[-76,-44],[-13,-125],[-27,-69],[-65,-7],[-28,-61],[-65,1],[-19,73],[19,26],[-24,24],[-58,129],[6,47]],[[1835,8367],[0,0]],[[1798,8458],[0,0]],[[1807,8494],[0,0]],[[1552,7345],[7,5]],[[2007,7638],[-21,-55]],[[2181,6901],[0,0]],[[3138,6861],[-41,-22],[21,-84],[-11,-37],[30,-51],[-26,-26],[-77,33],[-21,-22]],[[3013,6652],[-84,-1],[-68,-34],[-60,18],[-38,-22],[-39,14],[-1,-47],[-38,-26]],[[2685,6554],[8,82],[-26,-26],[-48,15],[-46,-50],[-45,-12],[-74,63],[-36,6],[-8,-46],[-40,-13],[-33,45],[-76,38],[-16,68],[-48,24],[41,12],[-21,72],[-29,14],[4,43],[28,34],[118,2],[40,26],[-36,40],[107,-10],[54,52],[54,23],[70,-5],[66,-22],[23,-35],[95,-28],[53,15],[43,-12],[63,46]],[[2285,7052],[17,-41],[36,-20],[-14,-21],[-65,0],[-36,-28],[-38,8]],[[2803,7474],[-122,-38],[-49,-36],[8,-38]],[[2568,7392],[-57,-1],[-35,20],[41,24],[-91,-5],[-29,-57],[-32,-15],[6,-35]],[[2488,7401],[0,0]],[[1298,6638],[-18,-37],[9,-106],[-7,-39],[-38,-54],[11,-67],[31,-59],[36,-39],[24,-152]],[[1346,6085],[-10,-9],[27,-95],[0,-199],[-20,-40],[28,-61],[13,-61],[65,-24],[21,-64]],[[1470,5532],[-227,-218],[-88,-119],[-119,-36],[-10,66],[-77,48],[-28,60],[-287,305],[-212,204],[0,31]],[[750,6487],[66,46],[49,19],[62,51],[68,7],[60,24],[83,-18],[54,34],[72,-19],[34,7]],[[2131,5407],[0,592],[-13,88],[6,89],[16,26]],[[2140,6202],[106,-22],[93,-45],[67,51],[57,0],[29,-30],[109,10]],[[2635,6023],[-35,-141],[-49,66],[-35,116],[-11,-28],[28,-88],[33,-55],[21,-103],[80,-225],[8,-80],[59,-78],[-603,0]],[[2679,6291],[53,-34],[99,87]],[[2831,6344],[26,-93],[-16,-21],[-102,-41],[52,-82],[-26,-41],[-36,-11],[-38,-56],[-53,30]],[[2662,6188],[5,75]],[[2689,6448],[31,-34],[-36,-65]],[[2684,6349],[-2,-1]],[[2645,6320],[44,128]],[[1346,6085],[36,46],[-6,56],[71,78],[0,63]],[[1447,6328],[39,-26],[51,4],[96,-43],[17,-60],[31,-33],[63,-15],[80,-65],[40,16],[22,49],[-12,61],[36,63],[51,29],[74,-26],[10,-33],[71,-17],[24,-30]],[[2131,5407],[0,-165],[-51,0],[0,-41],[-406,325],[-89,-68],[-38,46],[-77,28]],[[3013,6652],[-48,-49],[-11,-144],[-26,-36],[-97,-79]],[[2681,6343],[3,6]],[[2689,6448],[-4,106]],[[1298,6638],[57,33],[36,-50],[37,12],[-31,-46],[30,-89],[-53,-85],[5,-30],[47,-23],[21,-32]],[[1435,6458],[0,0]],[[1419,6373],[0,0]]]}
